344P/Read,e,3.4921,273.1521,140.3889,4.863788,0.0918845,0.42245883,173.5089,01/03.0/2022,2000,g 13.0,4.0
# From MPC109148
345P/LINEAR,e,2.7274,154.5113,196.4721,4.037187,0.1215026,0.22131149,242.1775,01/03.0/2022,2000,g 12.0,4.0
# From MPC110086
346P/Catalina,e,22.1916,102.4600,335.9584,4.474752,0.1041239,0.50267608,185.8218,01/03.0/2022,2000,g 14.0,4.0
# From MPC108599
347P/PANSTARRS,e,11.7519,261.0224,98.3836,3.605071,0.1439903,0.38597896,278.9284,01/03.0/2022,2000,g 15.0,4.0
# From MPEC 2021-Y10
348P/PANSTARRS,e,17.7402,312.9412,135.6593,3.150317,0.1762677,0.30677757,352.8591,01/03.0/2022,2000,g 14.0,4.0
# From MPC112394
349P/Lemmon,e,5.4909,331.7455,256.0008,3.574365,0.1458498,0.29865521,232.2888,01/03.0/2022,2000,g 14.0,4.0
# From MPC111775
350P/McNaught,e,7.3598,65.3104,139.8533,4.088413,0.1192263,0.09221163,176.6783,01/03.0/2022,2000,g 14.0,4.0
# From MPC105244
351P/Wiegert-PANSTARRS,e,12.7843,283.4427,352.6818,4.438195,0.1054131,0.29555667,235.8070,01/03.0/2022,2000,g 12.5,4.0
# From MPC110086
352P/Skiff,e,21.0105,28.0337,309.2588,6.640700,0.0575948,0.61818339,95.3289,01/03.0/2022,2000,g 11.5,4.0
# From MPEC 2020-AA5
353P/McNaught,e,28.4199,121.5533,230.4126,4.171005,0.1157026,0.47030883,170.3698,01/03.0/2022,2000,g 14.5,4.0
# From MPC105545
354P/LINEAR,e,5.2556,320.1281,132.8927,2.289337,0.2845376,0.12570281,175.2681,01/03.0/2022,2000,g 15.5,4.0
# From MPEC 2020-AA5
355P/LINEAR-NEAT,e,11.0431,51.4295,336.2700,3.470939,0.1524171,0.50752548,235.0730,01/03.0/2022,2000,g 15.5,2.0
# From MPEC 2021-F20
356P/WISE,e,9.6380,160.7978,225.9944,4.158572,0.1162218,0.35540793,171.6379,01/03.0/2022,2000,g 14.0,4.0
# From MPC114609
357P/Hill,e,6.3135,44.5620,1.3879,4.459442,0.1046606,0.43519561,137.5747,01/03.0/2022,2000,g 15.5,4.0
# From MPEC 2020-HN5
358P/PANSTARRS,e,11.0593,85.7029,299.7551,3.146929,0.1765524,0.23871709,240.4268,01/03.0/2022,2000,g 18.0,4.0
# From MPC110086
359P/LONEOS,e,10.2675,149.7557,200.1989,4.639812,0.0986174,0.32420094,157.2605,01/03.0/2022,2000,g 13.5,4.0
# From MPC108599
360P/WISE,e,24.1101,2.1909,354.1507,3.701442,0.1384037,0.49913521,220.9771,01/03.0/2022,2000,g 19.5,6.0
# From MPC114609
361P/Spacewatch,e,13.8974,203.2516,219.0215,4.937261,0.0898411,0.43841511,115.0357,01/03.0/2022,2000,g 12.0,4.0
# From MPEC 2017-V13
362P/,e,15.5562,192.5549,53.6824,3.970068,0.1245969,0.27909882,244.1702,01/03.0/2022,2000,g 12.9,2.0
# From MPC114609
363P/Lemmon,e,5.4115,146.8837,341.1763,3.558681,0.1468150,0.52238987,206.6863,01/03.0/2022,2000,g 17.5,4.0
# From MPEC 2021-F20
364P/PANSTARRS,e,12.1366,46.1731,212.0166,2.879620,0.2016979,0.72198504,259.9659,01/03.0/2022,2000,g 17.0,2.0
# From MPC111775
365P/PANSTARRS,e,9.8199,86.8902,66.7891,3.170405,0.1745951,0.57955095,247.4294,01/03.0/2022,2000,g 17.0,4.0
# From MPC114610
366P/Spacewatch,e,8.8579,70.7621,153.1070,3.496184,0.1507692,0.34808496,190.4172,01/03.0/2022,2000,g 15.0,4.0
# From MPC112395
367P/Catalina,e,8.4611,58.7220,172.8769,3.506448,0.1501077,0.27997568,194.0693,01/03.0/2022,2000,g 17.5,2.0
# From MPC114610
368P/NEAT,e,15.4808,257.9106,118.8292,5.527845,0.0758351,0.62661017,91.4571,01/03.0/2022,2000,g 14.0,4.0
# From MPC114610
369P/Hill,e,10.3181,47.2911,13.1620,4.383166,0.1074044,0.55478574,126.2559,01/03.0/2022,2000,g 15.0,4.0
# From MPEC 2021-F20
370P/NEAT,e,19.4121,55.0967,356.6824,6.434323,0.0603879,0.61489638,78.6883,01/03.0/2022,2000,g 13.0,4.0
# From MPC114610
371P/LINEAR-Skiff,e,17.3794,67.2776,308.4923,4.180881,0.1152928,0.47688607,136.6928,01/03.0/2022,2000,g 16.0,4.0
# From MPEC 2020-K19
372P/McNaught,e,9.5096,325.8169,27.4366,4.505928,0.1030452,0.15272169,120.3561,01/03.0/2022,2000,g 13.5,4.0
# From MPEC 2021-F20
373P/Rinner,e,13.7649,231.9507,221.0550,3.802502,0.1329229,0.39238483,132.9572,01/03.0/2022,2000,g 14.5,4.0
# From MPC114610
374P/Larson,e,10.7658,7.9132,51.4620,4.972672,0.0888831,0.46283058,96.7056,01/03.0/2022,2000,g 14.0,4.0
# From MPEC 2021-F20
375P/Hill,e,17.3614,359.9499,119.4191,5.553688,0.0753064,0.65859008,83.5271,01/03.0/2022,2000,g 16.0,4.0
# From MPEC 2021-S45
376P/LONEOS,e,1.1854,314.5796,284.5717,5.807693,0.0704204,0.51694381,58.4825,01/03.0/2022,2000,g 12.5,4.0
# From MPEC 2021-N06
377P/Scotti,e,9.0238,226.0632,355.0515,6.708151,0.0567283,0.25198951,30.6315,01/03.0/2022,2000,g  9.5,4.0
# From MPEC 2021-Y10
378P/McNaught,e,19.0454,94.2874,193.7964,6.359989,0.0614497,0.46921929,27.1337,01/03.0/2022,2000,g 12.0,4.0
# From MPC115889
379P/Spacewatch,e,12.4384,183.8224,30.7854,3.516498,0.1494647,0.34110587,132.3862,01/03.0/2022,2000,g 15.0,4.0
# From MPEC 2020-KB7
380P/PANSTARRS,e,8.2607,132.8728,87.3058,4.477887,0.1040146,0.33577532,98.6420,01/03.0/2022,2000,g 12.5,4.0
# From MPEC 2021-J28
381P/LINEAR-Spacewatch,e,28.3777,173.7618,173.2154,7.128989,0.0517800,0.68192116,42.9181,01/03.0/2022,2000,g 17.5,2.0
# From MPEC 2021-WD8
382P/Larson,e,8.2066,173.8833,171.8161,6.483960,0.0596958,0.31847561,356.8138,01/03.0/2022,2000,g  8.0,4.0
# From MPC118844
383P/Christensen,e,12.3226,207.8475,133.7224,3.546010,0.1476027,0.59959573,118.0206,01/03.0/2022,2000,g 18.0,4.0
# From MPEC 2021-S45
384P/Kowalski,e,7.2845,354.2303,37.6171,2.900692,0.1995040,0.61583115,162.4483,01/03.0/2022,2000,g 19.5,4.0
# From MPEC 2021-F20
385P/Hill,e,16.8317,357.0606,44.3243,4.288473,0.1109814,0.40169919,93.3290,01/03.0/2022,2000,g 13.0,4.0
# From MPEC 2021-L04
386P/PANSTARRS,e,15.2297,134.9457,353.1821,4.055203,0.1206938,0.41623351,60.5700,01/03.0/2022,2000,g 14.5,4.0
# From MPEC 2021-J28
387P/Boattini,e,8.9220,259.2945,162.7738,4.797696,0.0937897,0.73632484,79.6847,01/03.0/2022,2000,g 15.0,4.0
# From MPEC 2021-S45
388P/Gibbs,e,23.8762,37.0419,42.3321,5.242712,0.0821051,0.61820242,73.4289,01/03.0/2022,2000,g 13.0,4.0
# From MPEC 2021-S45
390P/Gibbs,e,18.5620,152.2747,232.3608,5.806016,0.0704509,0.70727911,45.9058,01/03.0/2022,2000,g 12.0,4.0
# From MPEC 2021-F20
391P/Kowalski,e,21.2741,124.7344,187.1556,4.680969,0.0973196,0.12040860,134.5815,01/03.0/2022,2000,g  8.0,4.0
# From MPEC 2021-J28
392P/LINEAR,e,4.9312,24.8826,71.9277,6.143306,0.0647293,0.68284926,41.5691,01/03.0/2022,2000,g 14.5,4.0
# From MPEC 2021-BE3
393P/Spacewatch-Hill,e,16.7888,36.4077,328.4510,4.788869,0.0940491,0.12068006,75.1118,01/03.0/2022,2000,g 11.0,4.0
# From MPEC 2020-KB7
394P/PANSTARRS,e,8.5294,98.1252,54.5095,4.331430,0.1093345,0.36763940,83.6299,01/03.0/2022,2000,g 16.0,2.4
# From MPEC 2021-Y10
395P/Catalina-NEAT,e,3.2762,223.6450,89.8658,6.563276,0.0586169,0.38066267,0.2089,01/03.0/2022,2000,g 10.0,4.0
# From MPEC 2020-KB7
396P/,e,5.4364,136.6628,8.5287,6.813265,0.0554206,0.41575004,47.6011,01/03.0/2022,2000,g 12.0,4.0
# From MPEC 2021-O56
397P/Lemmon,e,10.9290,8.1974,14.4687,3.828618,0.1315652,0.40519904,74.0038,01/03.0/2022,2000,g 12.0,4.0
# From MPEC 2021-L04
398P/Boattini,e,11.0153,127.4585,320.2165,3.127666,0.1781860,0.58269946,66.3294,01/03.0/2022,2000,g 15.5,4.0
# From MPEC 2021-Y10
399P/PANSTARRS,e,13.3188,207.1404,214.3096,3.790847,0.1335364,0.44707390,30.0986,01/03.0/2022,2000,g 14.0,4.0
# From MPEC 2020-FB5
400P/PANSTARRS,e,10.9296,176.3921,238.8077,3.560814,0.1466831,0.40930601,47.9416,01/03.0/2022,2000,g 15.5,2.8
# From MPEC 2021-R75
401P/McNaught,e,12.8027,359.8803,309.3723,5.774294,0.0710323,0.57997086,53.8361,01/03.0/2022,2000,g 12.5,4.0
# From MPEC 2021-Y10
402P/LINEAR,e,30.8512,123.0918,326.7363,7.015621,0.0530402,0.43870451,1.0300,01/03.0/2022,2000,g  8.0,4.0
# From MPEC 2021-J28
403P/Catalina,e,12.3216,163.8124,277.6538,5.427895,0.0779394,0.50355991,36.9150,01/03.0/2022,2000,g 12.0,4.0
# From MPEC 2021-WD8
404P/Bressi,e,9.7143,261.0185,165.2869,4.797810,0.0937863,0.13585260,299.5860,01/03.0/2022,2000,g 10.0,4.0
# From MPEC 2021-L04
405P/Lemmon,e,9.3655,3.3148,112.2223,3.607824,0.1438256,0.68912770,53.8919,01/03.0/2022,2000,g 17.5,4.0
# From MPEC 2021-F20
406P/Gibbs,e,1.2135,11.4743,352.3992,3.575361,0.1457888,0.54205938,69.1346,01/03.0/2022,2000,g 17.0,4.0
# From MPEC 2021-F20
407P/PANSTARRS-Fuls,e,4.8841,80.7194,92.9418,3.465371,0.1527846,0.38378678,107.2057,01/03.0/2022,2000,g 14.0,4.0
# From MPEC 2021-Y10
408P/Novichonok-Gerke,e,19.3500,189.4362,226.3067,4.752173,0.0951406,0.27019279,333.9230,01/03.0/2022,2000,g 11.0,4.0
# From MPEC 2021-UA9
409P/LONEOS-Hill,e,17.1190,143.6706,15.1233,6.044646,0.0663205,0.70982931,22.5405,01/03.0/2022,2000,g 14.0,4.0
# From MPEC 2021-W31
410P/NEAT-LINEAR,e,9.3936,139.9806,313.0917,6.635804,0.0576585,0.51069233,11.1536,01/03.0/2022,2000,g 12.5,4.0
# From MPEC 2021-J28
411P/Christensen,e,12.3782,77.6644,46.6541,5.816613,0.0702585,0.58080157,24.1436,01/03.0/2022,2000,g 13.5,4.0
# From MPEC 2021-F20
412P/WISE,e,8.9312,0.8467,155.9252,3.109483,0.1797512,0.47968549,70.7625,01/03.0/2022,2000,g 17.0,4.0
# From MPEC 2021-O56
413P/Larson,e,15.9783,39.0246,186.0517,3.710091,0.1379200,0.42320880,23.0004,01/03.0/2022,2000,g 14.0,4.0
# From MPEC 2021-BE3
414P/STEREO,e,23.3849,257.7894,210.7253,2.794162,0.2110215,0.81162543,72.3037,01/03.0/2022,2000,g 19.0,4.0
# From MPEC 2021-N06
415P/Tenagra,e,31.7921,160.2947,346.2021,4.114851,0.1180791,0.19471098,38.0396,01/03.0/2022,2000,g 12.0,4.0
# From MPEC 2021-L04
416P/Scotti,e,3.3613,355.8119,134.4883,4.012365,0.1226319,0.45430246,39.4384,01/03.0/2022,2000,g 15.5,4.0
# From MPEC 2021-W31
417P/NEOWISE,e,8.1282,111.3339,129.4829,3.350469,0.1607110,0.55478659,41.1029,01/03.0/2022,2000,g 16.5,4.0
# From MPEC 2021-L04
418P/LINEAR,e,5.7975,277.6569,307.1015,5.079232,0.0861008,0.66473309,6.6670,01/03.0/2022,2000,g 13.0,4.0
# From MPEC 2021-S45
419P/PANSTARRS,e,2.8029,40.3899,187.5015,3.520653,0.1492002,0.27761641,10.0768,01/03.0/2022,2000,g 12.5,4.0
# From MPEC 2021-S45
420P/Hill,e,14.5034,173.9554,157.1186,5.524887,0.0758960,0.49531305,349.4023,01/03.0/2022,2000,g 11.5,4.0
# From MPEC 2021-W31
421P/McNaught,e,10.0799,55.3486,259.8297,5.075440,0.0861973,0.67553013,29.4948,01/03.0/2022,2000,g 14.0,4.0
# From MPEC 2021-W31
422P/Christensen,e,39.5360,36.0512,305.1539,6.320931,0.0620201,0.50874266,359.3277,01/03.0/2022,2000,g 11.0,4.0
# From MPEC 2021-N06
